OBJECT_NAME,OBJECT_ID,EPOCH,MEAN_MOTION,ECCENTRICITY,INCLINATION,RA_OF_ASC_NODE,ARG_OF_PERICENTER,MEAN_ANOMALY,EPHEMERIS_TYPE,CLASSIFICATION_TYPE,NORAD_CAT_ID,ELEMENT_SET_NO,REV_AT_EPOCH,BSTAR,MEAN_MOTION_DOT,MEAN_MOTION_DDOT
STARLINK-31643,2024-062Q,2024-04-22T00:00:00.999648,15.49308536,0.0001325,53.16,220.0399,78.7033,88.7911,0,U,59388,999,434,-0.00044999,-0.00025393,0
STARLINK-31647,2024-062R,2024-04-21T22:00:00.999936,15.49343579,0.0001329,53.1598,220.4308,62.3477,3.9713,0,U,59389,999,436,-0.0020266,-0.00111701,0
STARLINK-31649,2024-062S,2024-04-22T00:00:00.999648,15.49321462,0.0001074,53.16,220.0278,75.8006,97.4743,0,U,59390,999,434,-0.00029105,-0.00016608,0
STARLINK-31644,2024-062T,2024-04-22T04:00:00.999936,15.42709732,0.0001403,53.1599,219.3195,96.3361,241.8288,0,U,59391,999,437,0.0016215,0.00072137,0
STARLINK-31626,2024-062U,2024-04-21T22:00:00.999936,15.49303823,0.0001518,53.1598,220.419,123.4473,308.6631,0,U,59392,999,436,-0.00015362,-8.981e-05,0
STARLINK-31443,2024-062V,2024-04-21T22:00:00.999936,15.87358124,8.17e-05,53.1615,218.0655,259.9197,250.3508,0,U,59393,999,436,-0.00017393,-0.00047301,0
STARLINK-31607,2024-062W,2024-04-21T22:00:00.999936,15.49304993,0.0001425,53.1598,220.4109,83.9087,352.0626,0,U,59394,999,437,-0.00014751,-8.642e-05,0
2024-063A,2024-063A,2024-04-22T04:55:23.041056,15.23500344,0.0004977,34.9944,29.0917,82.0419,278.086,0,U,59395,999,294,0.0015669,0.00038487,0
2024-063B,2024-063B,2024-04-22T01:39:53.355456,15.18708203,0.0024915,34.726,29.9296,55.9212,304.3857,0,U,59396,999,290,0.00087483,0.00018756,0
STARLINK-31608,2024-062X,2024-04-21T22:00:00.999936,15.49286838,0.0001519,53.1598,220.4069,112.2573,325.6476,0,U,59397,999,415,0.00062751,0.00034579,0
STARLINK-31534,2024-064A,2024-04-22T04:00:00.999936,15.51870362,0.0001754,43,7.2066,273.0492,289.4902,0,U,59398,999,378,-0.026776,-0.01467687,0
STARLINK-31544,2024-064B,2024-04-22T04:00:00.999936,15.51872112,0.0001401,42.9999,7.1971,263.6944,302.6964,0,U,59399,999,384,-0.027284,-0.01517178,0
STARLINK-31545,2024-064C,2024-04-22T04:00:00.999936,15.51864088,0.0001634,43,7.2018,268.5743,295.8925,0,U,59400,999,384,-0.026665,-0.01461902,0
STARLINK-31507,2024-064D,2024-04-22T04:00:00.999936,15.51871212,0.000151,43.0001,7.1919,273.275,295.0425,0,U,59401,999,378,-0.027413,-0.01523677,0
STARLINK-31543,2024-064E,2024-04-22T04:00:00.999936,15.51862699,0.0001432,43,7.1874,275.7272,294.5185,0,U,59402,999,384,-0.027226,-0.01513798,0
STARLINK-31366,2024-064F,2024-04-22T04:00:00.999936,15.51859627,0.0001476,42.9999,7.1825,272.9085,299.2637,0,U,59403,999,384,-0.027224,-0.01513563,0
STARLINK-31374,2024-064G,2024-04-22T04:00:00.999936,15.61936447,0.0005711,42.9993,7.0989,244.2747,1.8245,0,U,59404,999,363,0.015281,0.01538944,0
STARLINK-31400,2024-064H,2024-04-22T04:00:00.999936,15.5184633,0.000144,42.9999,7.1725,275.7324,300.2945,0,U,59405,999,384,-0.027008,-0.01501995,0
STARLINK-31391,2024-064J,2024-04-22T04:00:00.999936,15.51840805,0.000138,43,7.1676,266.7196,311.2335,0,U,59406,999,384,-0.02684,-0.01469243,0
STARLINK-31387,2024-064K,2024-04-22T04:00:00.999936,15.518374,0.000143,43,7.163,272.2226,307.6574,0,U,59407,999,384,-0.026858,-0.01469982,0
STARLINK-31367,2024-064L,2024-04-22T04:00:00.999936,15.65975865,0.0001993,43.0004,6.2333,260.9466,332.5414,0,U,59408,999,385,-0.01785,-0.01656385,0
STARLINK-31396,2024-064M,2024-04-22T04:00:00.999936,15.51811338,0.0001898,43,7.1531,269.611,314.1252,0,U,59409,999,378,-0.025907,-0.01422346,0
STARLINK-31412,2024-064N,2024-04-22T04:00:00.999936,15.51823807,0.0001563,43,7.1481,274.6106,311.0496,0,U,59410,999,384,-0.026712,-0.01462262,0
STARLINK-31483,2024-064P,2024-04-22T04:00:00.999936,15.51817438,0.0001559,43.0001,7.1434,272.2459,315.3412,0,U,59411,999,384,-0.026577,-0.01455357,0
STARLINK-31568,2024-064Q,2024-04-22T04:00:00.999936,15.51809838,0.0001435,42.9999,7.1383,271.7591,317.7564,0,U,59412,999,384,-0.026421,-0.01447309,0
STARLINK-31615,2024-064R,2024-04-22T04:00:00.999936,15.51806585,0.0001506,43.0001,7.1336,274.5693,316.872,0,U,59413,999,384,-0.02642,-0.01447138,0
STARLINK-31457,2024-064S,2024-04-21T22:00:00.999936,15.6021576,0.0002904,42.9998,8.5347,242.0834,56.6646,0,U,59414,999,384,0.0014767,0.00125263,0
STARLINK-31398,2024-064T,2024-04-22T04:00:00.999936,15.5179363,0.0001412,42.9999,7.1234,273.0289,322.267,0,U,59415,999,384,-0.026167,-0.01434091,0
STARLINK-31399,2024-064U,2024-04-22T04:00:00.999936,15.51776153,0.0001752,42.9999,7.1185,271.894,325.3302,0,U,59416,999,384,-0.025454,-0.0139835,0
STARLINK-31401,2024-064V,2024-04-22T04:00:00.999936,15.51771641,0.0001797,43.0001,7.1147,269.6446,329.5057,0,U,59417,999,363,-0.025391,-0.01395054,0
