STARLINK-31643          
1 59388U 24062Q   24113.00001157 -.00025393  00000+0 -44999-3 0  9993
2 59388  53.1600 220.0399 0001325  78.7033  88.7911 15.49308536  4343
STARLINK-31647          
1 59389U 24062R   24112.91667824 -.00111701  00000+0 -20266-2 0  9991
2 59389  53.1598 220.4308 0001329  62.3477   3.9713 15.49343579  4366
STARLINK-31649          
1 59390U 24062S   24113.00001157 -.00016608  00000+0 -29105-3 0  9997
2 59390  53.1600 220.0278 0001074  75.8006  97.4743 15.49321462  4344
STARLINK-31644          
1 59391U 24062T   24113.16667824  .00072137  00000+0  16215-2 0  9998
2 59391  53.1599 219.3195 0001403  96.3361 241.8288 15.42709732  4374
STARLINK-31626          
1 59392U 24062U   24112.91667824 -.00008981  00000+0 -15362-3 0  9992
2 59392  53.1598 220.4190 0001518 123.4473 308.6631 15.49303823  4366
STARLINK-31443          
1 59393U 24062V   24112.91667824 -.00047301  00000+0 -17393-3 0  9998
2 59393  53.1615 218.0655 0000817 259.9197 250.3508 15.87358124  4367
STARLINK-31607          
1 59394U 24062W   24112.91667824 -.00008642  00000+0 -14751-3 0  9999
2 59394  53.1598 220.4109 0001425  83.9087 352.0626 15.49304993  4373
2024-063A               
1 59395U 24063A   24113.20512779  .00038487  00000+0  15669-2 0  9998
2 59395  34.9944  29.0917 0004977  82.0419 278.0860 15.23500344  2948
2024-063B               
1 59396U 24063B   24113.06936754  .00018756  00000+0  87483-3 0  9997
2 59396  34.7260  29.9296 0024915  55.9212 304.3857 15.18708203  2904
STARLINK-31608          
1 59397U 24062X   24112.91667824  .00034579  00000+0  62751-3 0  9991
2 59397  53.1598 220.4069 0001519 112.2573 325.6476 15.49286838  4153
STARLINK-31534          
1 59398U 24064A   24113.16667824 -.01467687  00000+0 -26776-1 0  9990
2 59398  43.0000   7.2066 0001754 273.0492 289.4902 15.51870362  3788
STARLINK-31544          
1 59399U 24064B   24113.16667824 -.01517178  00000+0 -27284-1 0  9997
2 59399  42.9999   7.1971 0001401 263.6944 302.6964 15.51872112  3842
STARLINK-31545          
1 59400U 24064C   24113.16667824 -.01461902  00000+0 -26665-1 0  9995
2 59400  43.0000   7.2018 0001634 268.5743 295.8925 15.51864088  3845
STARLINK-31507          
1 59401U 24064D   24113.16667824 -.01523677  00000+0 -27413-1 0  9996
2 59401  43.0001   7.1919 0001510 273.2750 295.0425 15.51871212  3787
STARLINK-31543          
1 59402U 24064E   24113.16667824 -.01513798  00000+0 -27226-1 0  9992
2 59402  43.0000   7.1874 0001432 275.7272 294.5185 15.51862699  3849
STARLINK-31366          
1 59403U 24064F   24113.16667824 -.01513563  00000+0 -27224-1 0  9991
2 59403  42.9999   7.1825 0001476 272.9085 299.2637 15.51859627  3841
STARLINK-31374          
1 59404U 24064G   24113.16667824  .01538944  00000+0  15281-1 0  9990
2 59404  42.9993   7.0989 0005711 244.2747   1.8245 15.61936447  3635
STARLINK-31400          
1 59405U 24064H   24113.16667824 -.01501995  00000+0 -27008-1 0  9999
2 59405  42.9999   7.1725 0001440 275.7324 300.2945 15.51846330  3842
STARLINK-31391          
1 59406U 24064J   24113.16667824 -.01469243  00000+0 -26840-1 0  9992
2 59406  43.0000   7.1676 0001380 266.7196 311.2335 15.51840805  3849
STARLINK-31387          
1 59407U 24064K   24113.16667824 -.01469982  00000+0 -26858-1 0  9992
2 59407  43.0000   7.1630 0001430 272.2226 307.6574 15.51837400  3843
STARLINK-31367          
1 59408U 24064L   24113.16667824 -.01656385  00000+0 -17850-1 0  9990
2 59408  43.0004   6.2333 0001993 260.9466 332.5414 15.65975865  3856
STARLINK-31396          
1 59409U 24064M   24113.16667824 -.01422346  00000+0 -25907-1 0  9991
2 59409  43.0000   7.1531 0001898 269.6110 314.1252 15.51811338  3786
STARLINK-31412          
1 59410U 24064N   24113.16667824 -.01462262  00000+0 -26712-1 0  9999
2 59410  43.0000   7.1481 0001563 274.6106 311.0496 15.51823807  3849
STARLINK-31483          
1 59411U 24064P   24113.16667824 -.01455357  00000+0 -26577-1 0  9996
2 59411  43.0001   7.1434 0001559 272.2459 315.3412 15.51817438  3847
STARLINK-31568          
1 59412U 24064Q   24113.16667824 -.01447309  00000+0 -26421-1 0  9993
2 59412  42.9999   7.1383 0001435 271.7591 317.7564 15.51809838  3848
STARLINK-31615          
1 59413U 24064R   24113.16667824 -.01447138  00000+0 -26420-1 0  9993
2 59413  43.0001   7.1336 0001506 274.5693 316.8720 15.51806585  3846
STARLINK-31457          
1 59414U 24064S   24112.91667824  .00125263  00000+0  14767-2 0  9997
2 59414  42.9998   8.5347 0002904 242.0834  56.6646 15.60215760  3842
STARLINK-31398          
1 59415U 24064T   24113.16667824 -.01434091  00000+0 -26167-1 0  9997
2 59415  42.9999   7.1234 0001412 273.0289 322.2670 15.51793630  3841
STARLINK-31399          
1 59416U 24064U   24113.16667824 -.01398350  00000+0 -25454-1 0  9993
2 59416  42.9999   7.1185 0001752 271.8940 325.3302 15.51776153  3841
STARLINK-31401          
1 59417U 24064V   24113.16667824 -.01395054  00000+0 -25391-1 0  9992
2 59417  43.0001   7.1147 0001797 269.6446 329.5057 15.51771641  3638
